IRIDIUM 63 [-]          
1 25286U 98021B   23310.78120233  .00001037  00000+0  35427-3 0  9992
2 25286  86.3970 328.6138 0002261  86.9537 273.1918 14.35476916339404
IRIDIUM 69 [-]          
1 25319U 98026A   23310.80563326  .00001208  00000+0  38018-3 0  9990
2 25319  86.3996 343.6362 0003643 128.0621 232.0907 14.39654571338378
IRIDIUM 71 [-]          
1 25320U 98026B   23311.13362520  .00000850  00000+0  26388-3 0  9991
2 25320  86.3980 338.3215 0001691 156.4896 203.6380 14.39982890339188
IRIDIUM 73 [-]          
1 25344U 98032C   23310.89864519  .00001527  00000+0  38856-3 0  9996
2 25344  86.4373 296.1945 0002448 105.0979 255.0496 14.50113456345267
IRIDIUM 82 [-]          
1 25467U 98051A   23310.93708661  .00018202  00000+0  10613-2 0  9991
2 25467  86.3983  30.8205 0142727 317.0676  41.9485 15.03558964334876
